IRIDIUM 155             
1 43573U 18061E   22185.87953782  .00000172  00000+0  54323-4 0  9995
2 43573  86.3966 299.8457 0002387  88.7513 271.3956 14.34218420206480
IRIDIUM 154             
1 43574U 18061F   22185.86050572  .00000143  00000+0  43879-4 0  9992
2 43574  86.3972 299.9178 0002277 101.7237 258.4214 14.34216871206533
IRIDIUM 163             
1 43575U 18061G   22185.84146338  .00000136  00000+0  41677-4 0  9993
2 43575  86.3970 299.8854 0001822  95.2511 264.8893 14.34215575206500
IRIDIUM 156             
1 43576U 18061H   22185.81609452  .00000141  00000+0  43215-4 0  9998
2 43576  86.3970 299.9015 0002088  87.4083 272.7352 14.34215063206491
IRIDIUM 164             
1 43577U 18061J   22185.86683031  .00000144  00000+0  44500-4 0  9990
2 43577  86.3970 299.8985 0002133 101.1582 258.9854 14.34214400206549
IRIDIUM 159             
1 43578U 18061K   22185.83513552  .00000146  00000+0  45012-4 0  9999
2 43578  86.3970 299.8790 0002227 100.1332 260.0115 14.34215891206505
IRIDIUM 180             
1 43922U 19002A   22186.53231501  .00000122  00000+0  36630-4 0  9997
2 43922  86.3974 236.4453 0002146 108.1799 251.9631 14.34215798182253
IRIDIUM 176             
1 43923U 19002B   22185.86470944  .00000315  00000+0  46074-4 0  9996
2 43923  86.6109 236.7595 0002451  94.3915 265.7582 14.72241365186895
IRIDIUM 168             
1 43924U 19002C   22185.89806103  .00000118  00000+0  35011-4 0  9990
2 43924  86.3976 236.7467 0002352  99.1619 260.9843 14.34215420182105
IRIDIUM 173             
1 43925U 19002D   22185.88537064  .00000111  00000+0  32672-4 0  9990
2 43925  86.3973 236.6999 0002255  98.2946 261.8505 14.34215338182087
IRIDIUM 169             
1 43926U 19002E   22185.76136256  .00000151  00000+0  42911-4 0  9997
2 43926  86.4225 268.3506 0006507  69.1131 291.0763 14.38608363182700
IRIDIUM 172             
1 43927U 19002F   22186.22787397  .00000124  00000+0  37274-4 0  9994
2 43927  86.3974 236.5604 0002263 100.2826 259.8625 14.34216787182148
IRIDIUM 175             
1 43928U 19002G   22185.85853895  .00000336  00000+0  49320-4 0  9990
2 43928  86.6111 236.5929 0002592  97.1843 262.9669 14.72251024186886
IRIDIUM 171             
1 43929U 19002H   22185.86000302  .00000114  00000+0  33812-4 0  9992
2 43929  86.3982 236.8599 0002377  98.9762 261.1703 14.34215757182085
IRIDIUM 170             
1 43930U 19002J   22185.87088414  .00000320  00000+0  46777-4 0  9998
2 43930  86.6109 236.7624 0002686  93.9345 266.2180 14.72240486186903
IRIDIUM 167             
1 43931U 19002K   22186.55134005  .00000123  00000+0  36875-4 0  9992
2 43931  86.3973 236.4348 0002252 103.9912 256.1535 14.34214990182188
